H1 CPF 01  gfz 2022 11 03 01  8071 tandemx   
H2 1003001  6202 36605    2022 11 03 00 59 42 2022 11 08 00 00 42   120 1 1  0 0 0
H9
10 0 59887  82782.000000  0   -2001166.557   6326475.018   1844039.919
10 0 59887  82902.000000  0   -1882862.782   6556147.119    958815.659
10 0 59887  83022.000000  0   -1728649.400   6668816.041     56706.973
10 0 59887  83142.000000  0   -1543304.132   6661971.234   -846401.247
10 0 59887  83262.000000  0   -1332176.429   6535304.968  -1734621.856
10 0 59887  83382.000000  0   -1101051.306   6290719.192  -2592355.969
10 0 59887  83502.000000  0    -856006.686   5932286.949  -3404571.794
10 0 59887  83622.000000  0    -603267.308   5466174.004  -4157069.194
10 0 59887  83742.000000  0    -349058.825   4900521.021  -4836727.153
10 0 59887  83862.000000  0     -99465.184   4245289.447  -5431727.664
10 0 59887  83982.000000  0     139707.785   3512075.814  -5931754.081
10 0 59887  84102.000000  0     363059.188   2713897.388  -6328160.266
10 0 59887  84222.000000  0     565707.120   1864955.606  -6614108.059
10 0 59887  84342.000000  0     743389.108    980383.148  -6784674.267
10 0 59887  84462.000000  0     892546.862     75976.632  -6836926.725
10 0 59887  84582.000000  0    1010394.189   -832080.584  -6769969.122
10 0 59887  84702.000000  0    1094967.025  -1727501.441  -6584953.068
10 0 59887  84822.000000  0    1145155.390  -2594178.581  -6285059.805
10 0 59887  84942.000000  0    1160717.650  -3416467.403  -5875453.584
10 0 59887  85062.000000  0    1142274.967  -4179467.115  -5363202.801
10 0 59887  85182.000000  0    1091287.206  -4869291.080  -4757167.636
10 0 59887  85302.000000  0    1010010.833  -5473323.105  -4067858.719
10 0 59887  85422.000000  0     901438.059  -5980456.580  -3307265.116
10 0 59887  85542.000000  0     769219.016  -6381309.109  -2488653.251
10 0 59887  85662.000000  0     617568.670  -6668408.575  -1626340.235
10 0 59887  85782.000000  0     451159.864  -6836345.394   -735443.461
10 0 59887  85902.000000  0     275004.708  -6881884.925    168388.182
10 0 59887  86022.000000  0      94327.663  -6804037.706   1069255.032
10 0 59887  86142.000000  0     -85566.572  -6604085.839   1951294.326
10 0 59887  86262.000000  0    -259427.142  -6285563.503   2798969.341
10 0 59887  86382.000000  0    -422189.313  -5854190.394   3597352.944
10 0 59888    102.000000  0    -569101.671  -5317759.832   4332395.777
10 0 59888    222.000000  0    -695845.216  -4685989.623   4991176.181
10 0 59888    342.000000  0    -798640.937  -3970336.088   5562127.763
10 0 59888    462.000000  0    -874343.836  -3183776.807   6035241.219
10 0 59888    582.000000  0    -920521.316  -2340565.103   6402235.003
10 0 59888    702.000000  0    -935514.021  -1455966.072   6656692.240
10 0 59888    822.000000  0    -918478.877   -545978.220   6794167.463
10 0 59888    942.000000  0    -869414.232    372957.440   6812260.302
10 0 59888   1062.000000  0    -789165.074   1284254.388   6710654.857
10 0 59888   1182.000000  0    -679408.010   2171479.615   6491124.896
10 0 59888   1302.000000  0    -542617.101   3018649.578   6157504.704
10 0 59888   1422.000000  0    -382011.308   3810518.918   5715626.452
10 0 59888   1542.000000  0    -201484.388   4532857.815   5173223.318
10 0 59888   1662.000000  0      -5517.856   5172712.690   4539800.805
10 0 59888   1782.000000  0     200921.366   5718647.469   3826474.509
10 0 59888   1902.000000  0     412495.910   6160953.960   3045778.488
10 0 59888   2022.000000  0     623623.344   6491839.054   2211449.658
10 0 59888   2142.000000  0     828611.458   6705572.660   1338178.910
10 0 59888   2262.000000  0    1021796.356   6798592.491    441346.848
10 0 59888   2382.000000  0    1197682.487   6769566.636   -463254.812
10 0 59888   2502.000000  0    1351079.580   6619411.295  -1359709.916
10 0 59888   2622.000000  0    1477232.880   6351263.599  -2232265.586
10 0 59888   2742.000000  0    1571944.086   5970411.016  -3065615.771
10 0 59888   2862.000000  0    1631679.904   5484178.363  -3845174.582
10 0 59888   2982.000000  0    1653665.854   4901775.532  -4557333.186
10 0 59888   3102.000000  0    1635962.931   4234110.427  -5189694.487
10 0 59888   3222.000000  0    1577525.455   3493574.027  -5731281.707
10 0 59888   3342.000000  0    1478239.653   2693802.425  -6172720.111
10 0 59888   3462.000000  0    1338941.548   1849419.888  -6506387.743
10 0 59888   3582.000000  0    1161415.327    975771.028  -6726535.093
10 0 59888   3702.000000  0     948372.026     88644.504  -6829375.149
10 0 59888   3822.000000  0     703408.354   -796007.828  -6813141.127
10 0 59888   3942.000000  0     430946.564  -1662351.326  -6678112.031
10 0 59888   4062.000000  0     136157.085  -2494943.367  -6426607.648
10 0 59888   4182.000000  0    -175136.172  -3279002.348  -6062955.357
10 0 59888   4302.000000  0    -496567.028  -4000667.894  -5593423.309
10 0 59888   4422.000000  0    -821351.523  -4647245.224  -5026122.706
10 0 59888   4542.000000  0   -1142425.325  -5207432.583  -4370879.717
10 0 59888   4662.000000  0   -1452591.853  -5671526.539  -3639076.102
10 0 59888   4782.000000  0   -1744677.700  -6031600.158  -2843460.168
10 0 59888   4902.000000  0   -2011692.101  -6281650.038  -1997930.899
10 0 59888   5022.000000  0   -2246987.041  -6417708.971  -1117297.548
10 0 59888   5142.000000  0   -2444413.805  -6437919.956   -217018.101
10 0 59888   5262.000000  0   -2598472.140  -6342568.002    687077.936
10 0 59888   5382.000000  0   -2704447.734  -6134068.497   1579075.771
10 0 59888   5502.000000  0   -2758534.370  -5816912.492   2443264.663
10 0 59888   5622.000000  0   -2757937.393  -5397569.725   3264423.505
10 0 59888   5742.000000  0   -2700955.527  -4884352.420   4028095.989
10 0 59888   5862.000000  0   -2587039.518  -4287243.937   4720849.481
10 0 59888   5982.000000  0   -2416827.156  -3617696.936   5330513.175
10 0 59888   6102.000000  0   -2192152.821  -2888404.749   5846391.303
10 0 59888   6222.000000  0   -1916031.179  -2113053.331   6259446.301
10 0 59888   6342.000000  0   -1592616.490  -1306060.055   6562452.195
10 0 59888   6462.000000  0   -1227138.454   -482301.428   6750115.676
10 0 59888   6582.000000  0    -825816.855    343163.103   6819161.060
10 0 59888   6702.000000  0    -395756.039   1155365.080   6768384.086
10 0 59888   6822.000000  0      55180.920   1939698.226   6598672.251
10 0 59888   6942.000000  0     518515.895   2682181.077   6312990.106
10 0 59888   7062.000000  0     985314.316   3369706.129   5916330.317
10 0 59888   7182.000000  0    1446356.144   3990273.406   5415631.886
10 0 59888   7302.000000  0    1892316.840   4533204.300   4819664.767
10 0 59888   7422.000000  0    2313955.934   4989332.025   4138881.883
10 0 59888   7542.000000  0    2702308.290   5351162.531   3385239.503
10 0 59888   7662.000000  0    3048874.703   5613005.809   2571991.413
10 0 59888   7782.000000  0    3345808.491   5771075.054   1713453.390
10 0 59888   7902.000000  0    3586090.285   5823543.657    824745.176
10 0 59888   8022.000000  0    3763687.853   5770564.253    -78482.232
10 0 59888   8142.000000  0    3873698.393   5614247.117   -980330.859
10 0 59888   8262.000000  0    3912467.723   5358598.884  -1864943.624
10 0 59888   8382.000000  0    3877684.702   5009424.118  -2716790.847
10 0 59888   8502.000000  0    3768447.330   4574191.177  -3520948.939
10 0 59888   8622.000000  0    3585299.292   4061866.472  -4263364.328
10 0 59888   8742.000000  0    3330237.676   3482723.398  -4931097.069
10 0 59888   8862.000000  0    3006691.915   2848130.098  -5512542.155
10 0 59888   8982.000000  0    2619474.164   2170320.520  -5997622.864
10 0 59888   9102.000000  0    2174703.560   1462155.445  -6377955.036
10 0 59888   9222.000000  0    1679705.995    736877.770  -6646979.673
10 0 59888   9342.000000  0    1142893.095      7867.925  -6800064.788
10 0 59888   9462.000000  0     573619.777   -711598.445  -6834578.167
10 0 59888   9582.000000  0     -17977.018  -1408587.203  -6749926.240
10 0 59888   9702.000000  0    -621153.815  -2070731.267  -6547562.232
10 0 59888   9822.000000  0   -1224750.613  -2686444.726  -6230965.486
10 0 59888   9942.000000  0   -1817392.611  -3245123.255  -5805587.904
10 0 59888  10062.000000  0   -2387699.501  -3737325.700  -5278769.602
10 0 59888  10182.000000  0   -2924501.355  -4154936.644  -4659624.923
10 0 59888  10302.000000  0   -3417057.696  -4491306.214  -3958895.834
10 0 59888  10422.000000  0   -3855273.447  -4741362.639  -3188774.916
10 0 59888  10542.000000  0   -4229908.493  -4901696.156  -2362700.698
10 0 59888  10662.000000  0   -4532775.977  -4970611.212  -1495126.804
10 0 59888  10782.000000  0   -4756923.867  -4948145.261   -601268.937
10 0 59888  10902.000000  0   -4896794.913  -4836053.148    303165.696
10 0 59888  11022.000000  0   -4948360.654  -4637756.890   1202261.492
10 0 59888  11142.000000  0   -4909225.063  -4358260.582   2080184.124
10 0 59888  11262.000000  0   -4778694.606  -4004032.714   2921468.661
10 0 59888  11382.000000  0   -4557813.762  -3582859.646   3711299.780
10 0 59888  11502.000000  0   -4249365.261  -3103674.296   4435778.852
10 0 59888  11622.000000  0   -3857834.028  -2576363.323   5082171.834
10 0 59888  11742.000000  0   -3389337.681  -2011559.669   5639131.615
10 0 59888  11862.000000  0   -2851526.389  -1420425.960   6096894.382
10 0 59888  11982.000000  0   -2253452.597   -814431.316   6447447.590
10 0 59888  12102.000000  0   -1605412.897   -205125.737   6684664.764
10 0 59888  12222.000000  0    -918766.402    396080.183   6804404.757
10 0 59888  12342.000000  0    -205735.118    978127.218   6804579.108
10 0 59888  12462.000000  0     520813.289   1530510.408   6685186.505
10 0 59888  12582.000000  0    1247597.238   2043468.747   6448312.923
10 0 59888  12702.000000  0    1961163.365   2508157.672   6098096.611
10 0 59888  12822.000000  0    2648134.812   2916802.079   5640660.680
99
